[{"OBJECT_NAME":"STARLINK-5089","OBJECT_ID":"2023-046BJ","EPOCH":"2026-03-09T10:29:20.263776","MEAN_MOTION":15.03010147,"ECCENTRICITY":0.00015953,"INCLINATION":43.0025,"RA_OF_ASC_NODE":109.142,"ARG_OF_PERICENTER":212.4436,"MEAN_ANOMALY":147.6309,"EPHEMERIS_TYPE":0,"CLASSIFICATION_TYPE":"U","NORAD_CAT_ID":56148,"ELEMENT_SET_NO":999,"REV_AT_EPOCH":16261,"BSTAR":0.0043155031,"MEAN_MOTION_DOT":0.00059331,"MEAN_MOTION_DDOT":0},{"OBJECT_NAME":"ARIANE 6 R\/B","OBJECT_ID":"2024-128E","EPOCH":"2026-03-09T18:39:06.277536","MEAN_MOTION":15.00137067,"ECCENTRICITY":0.00536237,"INCLINATION":62.0121,"RA_OF_ASC_NODE":216.5937,"ARG_OF_PERICENTER":115.5687,"MEAN_ANOMALY":245.096,"EPHEMERIS_TYPE":0,"CLASSIFICATION_TYPE":"U","NORAD_CAT_ID":60239,"ELEMENT_SET_NO":999,"REV_AT_EPOCH":9111,"BSTAR":0.00020908474,"MEAN_MOTION_DOT":2.489e-5,"MEAN_MOTION_DDOT":0}]
